#dP2018  6 23  0  0  0.00000000      96 __u+U ITR00 FIT  IAC
## 2006 518400.00000000   900.00000000 58292 0.0000000000000
+   84   C01C03C04C05C06C07C08C09C10C11C12C13C14E01E02E03E04
+        E05E07E08E09E11E12E14E18E19E24E26E30G01G02G03G04G05
+        G06G07G08G09G10G11G12G13G14G15G16G17G18G19G21G22G23
+        G24G25G26G27G28G29G30G31G32J01R01R02R03R04R05R07R08
+        R09R10R11R13R14R15R16R17R18R19R20R21R22R23R24R26  0
++         0  0  0  0  0  0  0  0  0  0  0  0  0  0  0  0  0
++         0  0  0  0  0  0  0  0  0  0  0  0  0  0  0  0  0
++         0  0  0  0  0  0  0  0  0  0  0  0  0  0  0  0  0
++         0  0  0  0  0  0  0  0  0  0  0  0  0  0  0  0  0
++         0  0  0  0  0  0  0  0  0  0  0  0  0  0  0  0  0
%c M  cc GPS ccc cccc cccc cccc cccc ccccc ccccc ccccc ccccc
%c cc cc ccc ccc cccc cccc cccc cccc ccccc ccccc ccccc ccccc
%f  0.0000000  0.000000000  0.00000000000  0.000000000000000
%f  0.0000000  0.000000000  0.00000000000  0.000000000000000
%i    0    0    0    0      0      0      0      0         0
%i    0    0    0    0      0      0      0      0         0
/*                                                          
/*   RSA / INFORMATION & ANALYSIS CENTER (IAC) OF MCC       
/*   ULTRA-RAPID DETERMINATION                              
/* PCV:IGS14_2000 OL/AL:FES2004  NONE     YN ORB:CoN CLK:CoN
*  2018 06 23  2 30  0.00000000
PC01 -32235.238489  27146.959564   1099.021147   -132.375946
PC03 -14855.117629  39430.251601    664.599158    295.080418
PC04 -39600.571780  14488.716473    556.547924    -40.391071
PC05  21899.761806  36002.975675   -870.120990    348.673468
PC06  -7063.655022  29918.185016 -28440.222651     65.449662
PC07 -21144.708331  22513.241769  28617.915753     97.342609
PC08 -21069.019818  36663.296452   -669.284065    404.014746
PC09   4249.845312  37625.580963 -18014.250889    -13.411693
PC10  -2703.293502  25614.289878  33470.246151   -330.588602
PC11 -15492.290421   1732.180947  23200.696058   -561.117092
PC12 -10660.647564 -19123.968772  17300.462808    487.913738
PC13 -11897.568782  38443.789053 -12970.202650   -388.327735
PC14 -24703.439395  -5907.221121 -11550.908997    122.414150
PE01  19112.678519 -13980.440514 -17769.964865   -374.644876
PE02 -19078.252443  13988.163331  17787.283737     17.113484
PE03  -8240.161963  16519.931929 -23129.342421    -46.478298
PE04  -8823.100869 -25754.811078  11635.462624    -60.580965
PE05 -20572.331467  -2453.916750 -21130.300641    241.100428
PE07  20833.657928  19908.974446   6799.254479     10.537808
PE08   9144.582291  25624.928282 -11658.828836   6558.653863
PE09 -20952.734518 -19772.232084  -6753.373783   6755.415925
PE11 -12220.332137 -12405.967163  23932.654900   1521.627507
PE12   2039.786183 -26728.344078  12579.639085   4443.033537
PE14  15599.450445  20150.146465 -14756.921679   6562.613833
PE18  -5762.357791 -27188.432254   2170.330025   6112.562376
PE19   9605.336104 -14956.193389  23681.813657     23.511416
PE24 -22533.666393  -8683.130780 -17135.407161   6638.712754
PE26  19036.393362  -8462.828266 -21028.496437   5791.197159
PE30   2462.355927  16047.026869  24739.702769   5736.250481
PG01 -10864.454109  21031.099371 -11882.574622    -58.849781
PG02  20997.689916 -13536.934453  -8094.810338     78.113588
PG03  -2518.872284  15106.740892 -21724.592000     93.833146
PG04 -25329.106688  -8488.196468    100.810022     71.796231
PG05  22095.043222  -4312.764515  14157.965250     -5.716317
PG06  18628.673352    245.363400 -18909.262452    393.738044
PG07   4185.685626  15984.215472  20920.500729    170.808283
PG08  -7178.380047  19254.802258  16784.968425   -105.717135
PG09   7898.249987  25234.284966   2406.204231    514.516191
PG10 -23666.217065 -11057.104344   5302.043870    188.582758
PG11  -8150.462924  25262.720891  -2904.407293   -732.904371
PG12   7519.702291 -12845.265492 -22176.366918    325.643429
PG13  12811.323309 -11252.574325  20256.478769    -93.219176
PG14 -15427.268329  -4694.551491 -20834.664771    -97.470888
PG15   4858.681422 -21175.553170  14801.190683   -352.135696
PG16 -22658.094641    923.012417  14005.132565     20.447825
PG17  13936.829939  14901.022470 -16684.652361    -85.515565
PG18 -16351.024825  20521.542289  -3885.536776     24.955957
PG19  15144.454020   5735.164636 -21315.754724   -426.253063
PG21  -8397.520770 -13963.270176  21781.093111   -377.632205
PG22 -11747.441686  12624.777117 -19954.368606   -434.802106
PG23   -332.308875  24802.828445  -8587.198196   -215.515894
PG24  13027.807263 -21558.490194  -8062.577009    -51.573187
PG25  -8396.310997 -16404.932425 -19395.400508   -605.114501
PG26 -25930.631174  -4179.446109   4395.998796   -106.836675
PG27 -13366.038531   7131.615104  21707.236138    364.728533
PG28  20841.290468  14446.216257   8427.241520    725.805866
PG29  -4610.290696 -26160.491789    386.979912    427.606229
PG30  13255.675345   8940.109323  21238.571138     59.274381
PG31 -19976.090064   1203.970838 -17632.841355    112.710050
PG32 -15272.757553 -14272.954462 -16395.208564   -489.150487
PJ01 -26660.566666  16948.077591 -23252.221443   -208.443144
PR01  18498.606124  17540.073569  -1122.908522     28.046188
PR02  17965.591657   5646.417761  17224.313068    316.157616
PR03   6503.991875  -8974.491812  23021.131380    135.745660
PR04  -9174.556140 -18410.145993  15117.673564    265.832209
PR05 -19227.983663 -16719.938229  -1070.777801    -28.693112
PR07  -6171.151216   9219.931240 -22926.599063    -40.701986
PR08   8670.619632  18247.770177 -15513.226906     22.595835
PR09 -24600.229688   5110.280124  -4175.640879     22.636969
PR10 -18855.646756  11534.806339  12630.841102     26.565947
PR11  -1529.899805  11721.528400  22609.977781    -32.300302
PR13  24530.949726  -5596.977749   4212.373747    -11.718155
PR14  18947.240234 -11737.181359 -12413.409861     28.423985
PR15   5984.154312 -12113.210350 -21608.749100    -12.105881
PR16 -15650.726271  -4857.124425 -19609.607953     95.472795
PR17  10306.615492 -20279.252223 -11505.123676    142.307919
PR18   3383.688198 -24741.397904   5374.576042    200.275167
PR19  -5128.882094 -15488.321453  19604.879446    -55.230815
PR20 -11495.287055   4012.293241  22408.339693   -342.589146
PR21 -10157.596969  20555.316365  11197.561623     10.589640
PR22  -2386.622340  24214.430872  -7435.626128    -53.333759
PR23   7175.950148  11795.452283 -21458.798964    161.387901
PR24  11604.329569  -5327.671199 -22114.254457   -167.951273
PR26 -11352.482824   3345.181967  22606.680670     28.571501
EOF
